SL-3 R/B                
1 19046U 88032B   26085.91454304  .00005299  00000+0  24643-3 0  9998
2 19046  97.5212  69.1094 0026123 169.8445 190.3323 15.20094163 54728
SL-16 R/B               
1 19120U 88039B   26085.96179340  .00000150  00000+0  93763-4 0  9998
2 19120  71.0164  32.0240 0023574 309.5650  50.3392 14.19618457960838
COSMOS 1953             
1 19210U 88050A   26085.12127894  .00005939  00000+0  21073-3 0  9990
2 19210  82.5080 141.7191 0012501  71.3179 288.9416 15.28777394 40295
SL-8 R/B                
1 19257U 88053B   26085.96899786  .00000349  00000+0  12158-3 0  9996
2 19257  74.0453  80.6120 0021492 257.6130 168.1023 14.38927680979080
COSMOS 1975             
1 19573U 88093A   26085.48752834  .00005987  00000+0  21559-3 0  9998
2 19573  82.5167 100.8164 0013321 109.4902 250.7778 15.28289797 21974
SL-14 R/B               
1 19574U 88093B   26085.90447270  .00000596  00000+0  65736-4 0  9998
2 19574  82.5337  25.8858 0020275 345.6586  76.7154 14.85676659  3577
SL-16 R/B               
1 19650U 88102B   26085.50409875 -.00000221  00000+0 -87482-4 0  9998
2 19650  70.9975 116.1185 0015014 336.1915  23.8512 14.16154123929270
INTERCOSMOS 24          
1 20261U 89080A   26085.95976762  .00000545  00000+0  16134-3 0  9999
2 20261  82.6011  93.1544 1186817 252.6975  94.1109 12.59580288668973
SL-14 R/B               
1 20262U 89080C   26085.75985788  .00000366  00000+0  10187-3 0  9999
2 20262  82.5959 162.2326 1230876 145.7510 222.9585 12.50510065662286
DELTA 1 R/B             
1 20323U 89089B   26085.31290023  .00000316  00000+0  86452-4 0  9993
2 20323  97.0694 290.1060 0070618  70.5092 290.3717 14.50676211898142
ARIANE 40 R/B           
1 20443U 90005H   26085.14388303  .00000265  00000+0  97702-4 0  9999
2 20443  98.3049 145.3124 0010853 150.0463 210.1349 14.39880961895173
DELTA 2 R/B(1)          
1 20453U 90008B   26085.23805440  .00069454  00000+0  76494-3 0  9998
2 20453  35.6039  66.0740 0078698  53.1388 307.6533 15.58109959928717
